satname,norad_id,inclination_deg,eccentricity,mean_motion_rev_per_day,perigee_km,apogee_km,l1,l2
STARLINK-1284,45390,53.0556,0.000119,15.06401646,546.3823973118697,548.0306290680082,1 45390U 20019AG  25361.56742135  .00002129  00000+0  16175-3 0  9999,2 45390  53.0556 110.3911 0001190  84.8255 275.2870 15.06401646319137
STARLINK-1297,45395,53.055,0.0001363,15.06402734,546.2592547683707,548.1471025010669,1 45395U 20019AM  25361.60429084 -.00000120  00000+0  10822-4 0  9998,2 45395  53.0550 110.2179 0001363  60.3168 299.7956 15.06402734318320
STARLINK-1307,45397,53.054,0.0001394,15.06399567,546.2474912472599,548.1782787952034,1 45397U 20019AP  25361.72960705  .00000751  00000+0  69284-4 0  9998,2 45397  53.0540 109.6597 0001394  92.7521 267.3628 15.06399567318981
STARLINK-1255,45399,53.0463,0.0001614,15.39922968,445.2354267914934,447.4383669654062,1 45399U 20019AR  25361.51918154  .00032963  00000+0  82222-3 0  9994,2 45399  53.0463  86.7355 0001614  48.1263 311.9878 15.39922968319276
STARLINK-1260,45404,53.0574,0.0001424,15.06394918,546.2409617275025,548.2133054327469,1 45404U 20019AW  25361.53149287 -.00000078  00000+0  13659-4 0  9998,2 45404  53.0574 100.5464 0001424  99.9800 260.1350 15.06394918318981
STARLINK-1263,45405,53.0548,0.0001252,15.06400106,546.3441794647833,548.078286662344,1 45405U 20019AX  25361.64945583  .00008984  00000+0  62124-3 0  9997,2 45405  53.0548 100.0216 0001252  95.1596 264.9536 15.06400106319001
STARLINK-1265,45406,53.0572,0.0001372,15.06389447,546.2937392924923,548.1940638118776,1 45406U 20019AY  25361.72316362  .00002240  00000+0  16928-3 0  9994,2 45406  53.0572  99.6887 0001372  93.9293 266.1853 15.06389447319010
STARLINK-1278,45408,53.0486,0.0004549,15.42113617,436.77085049122434,442.9738754096379,1 45408U 20019BA  25361.91671295  .00070220  00000+0  16103-2 0  9993,2 45408  53.0486 114.0931 0004549 204.9093 317.4606 15.42113617  5921
STARLINK-1296,45412,53.0575,0.0001223,15.06394441,546.3816233126963,548.0755677373609,1 45412U 20019BE  25361.46146225 -.00000009  00000+0  18279-4 0  9995,2 45412  53.0575 100.8638 0001223  95.8203 264.2926 15.06394441318970
STARLINK-1298,45413,53.0436,0.0004182,15.65179059,369.9006274522044,375.54704745665094,1 45413U 20019BF  25361.91671295  .00139791  00000+0  13688-2 0  9993,2 45413  53.0436  53.7750 0004182  74.3186 284.2449 15.65179059  5782
STARLINK-1309,45414,53.0558,0.0001281,15.06391374,546.3508549751377,548.1251360489869,1 45414U 20019BG  25360.54734330  .00001220  00000+0  10078-3 0  9998,2 45414  53.0558 104.9690 0001281  98.4330 261.6804 15.06391374318822
STARLINK-1316,45415,53.0555,0.0001315,15.06394021,546.3191970276694,548.1405685178379,1 45415U 20019BH  25361.70104617  .00000129  00000+0  27525-4 0  9990,2 45415  53.0555  99.7881 0001315  95.3635 264.7504 15.06394021319032
STARLINK-1318,45416,53.0453,0.0003427,15.72243872,350.17893430135337,354.79210297562895,1 45416U 20019BJ  25361.91671295  .00136805  00000+0  10030-2 0  9997,2 45416  53.0453  42.3394 0003427  26.7388  78.3667 15.72243872  6012
STARLINK-1286,45417,53.0507,0.0002011,15.43460064,434.536326759604,437.27693510796416,1 45417U 20019BK  25361.79035262  .00082609  00000+0  18067-2 0  9992,2 45417  53.0507 114.4437 0002011 232.7325 127.3497 15.43460064319093
STARLINK-1308,45419,53.0562,0.0001344,15.06394445,546.2978141311387,548.1593523999209,1 45419U 20019BM  25361.66879323  .00000059  00000+0  22831-4 0  9999,2 45419  53.0562 129.9315 0001344  93.6311 266.4832 15.06394445318612
STARLINK-1329,45531,53.0543,0.0001462,15.42413982,437.990525081299,439.98385219405736,1 45531U 20025A   25361.43950765  .00076893  00000+0  17438-2 0  9990,2 45531  53.0543  67.4651 0001462  45.8505 314.2620 15.42413982314251
STARLINK-1338,45532,53.0553,0.0001103,15.3019073,474.4868203219112,475.99867589434416,1 45532U 20025B   25361.91671295  .01666260  00000+0  50914-1 0  9991,2 45532  53.0553  67.6511 0001103  66.8829 190.7005 15.30190730  5794
STARLINK-1350,45535,53.0744,0.0001732,15.34002311,462.70047278188395,465.07054937972225,1 45535U 20025E   25361.32775997  .00013714  00000+0  42148-3 0  9994,2 45535  53.0744  12.4542 0001732  84.1066 276.0133 15.34002311315048
STARLINK-1362,45538,53.0537,0.0001235,15.06392022,546.3807259004798,548.0912930338181,1 45538U 20025H   25361.48167433 -.00000263  00000+0  12448-5 0  9992,2 45538  53.0537  70.4920 0001235  85.8252 274.2878 15.06392022314212
STARLINK-1368,45540,53.0546,0.0001115,15.06407371,546.4167931316942,547.9611408223309,1 45540U 20025K   25361.48633808  .00002474  00000+0  18487-3 0  9991,2 45540  53.0546  70.7526 0001115  82.0690 278.0425 15.06407371314205
STARLINK-1371,45542,53.0537,0.0001375,15.14860151,520.4544755250963,522.3518490697279,1 45542U 20025M   25361.91671295  .01002616  00000+0  49535-1 0  9998,2 45542  53.0537  68.6685 0001375  87.8043 324.7477 15.14860151  5832
STARLINK-1372,45543,53.0548,0.0001305,15.06397605,546.3151393333337,548.1226572227843,1 45543U 20025N   25361.62640479 -.00001844  00000+0 -10492-3 0  9992,2 45543  53.0548  70.1225 0001305  92.5774 267.5364 15.06397605313325
STARLINK-1373,45544,53.0545,0.0001902,15.08676032,538.9287427512563,541.560495119099,1 45544U 20025P   25361.70797491  .00253263  00000+0  15439-1 0  9995,2 45544  53.0545  69.7226 0001902  74.9105 285.2095 15.08676032314249
STARLINK-1294,45551,53.0433,0.0002449,15.71263111,353.6369872333553,356.935017819992,1 45551U 20025W   25361.91671295  .00139534  00000+0  10658-2 0  9992,2 45551  53.0433 337.7842 0002449 114.5174   5.2145 15.71263111  6018
STARLINK-1325,45554,53.0481,0.0010124,15.83575129,313.55829694381373,327.12137283910215,1 45554U 20025Z   25361.91671295  .00264112  00000+0  11437-2 0  9992,2 45554  53.0481 327.7482 0010124  78.0123 258.8488 15.83575129  5934
STARLINK-1327,45555,53.054,9.57e-05,15.18667343,509.20804967887216,510.5264136888163,1 45555U 20025AA  25361.91671295  .02033443  00000+0  87110-1 0  9996,2 45555  53.0540  48.5136 0000957  83.2382 259.8846 15.18667343  5783
STARLINK-1356,45564,53.056,0.0001393,15.06401497,546.2422694376846,548.1716702676858,1 45564U 20025AK  25361.28913860  .00002675  00000+0  19843-3 0  9994,2 45564  53.0560  51.6352 0001393  92.8291 267.2858 15.06401497314456
STARLINK-1357,45565,53.059,4.38e-05,15.41742338,440.66824095305583,441.2655944562475,1 45565U 20025AL  25361.91671295  .00144877  00000+0  33218-2 0  9990,2 45565  53.0590  21.5266 0000438 350.9517 243.2243 15.41742338  5920
STARLINK-1361,45567,53.0555,0.000104,15.0640168,546.4861732704921,547.9266446995616,1 45567U 20025AN  25361.83833772  .00001809  00000+0  14029-3 0  9990,2 45567  53.0555  49.1718 0001040  78.4034 281.7071 15.06401680314547
STARLINK-1363,45568,53.0501,0.0007716,15.52720545,403.55003812328414,414.02361897550054,1 45568U 20025AP  25361.91671295  .00177789  00000+0  27719-2 0  9990,2 45568  53.0501  30.0669 0007716 335.7984 332.5671 15.52720545  5905
STARLINK-1366,45569,53.0494,0.0007835,15.49607838,412.5477395148291,423.1970862648277,1 45569U 20025AQ  25361.91671295  .00164486  00000+0  28705-2 0  9997,2 45569  53.0494  30.4948 0007835 348.2262  44.8618 15.49607838  5900
STARLINK-1376,45570,53.0553,0.0001205,15.06394116,546.3950849352377,548.0640982838149,1 45570U 20025AR  25361.17119352  .00000186  00000+0  31398-4 0  9998,2 45570  53.0553  52.1683 0001205  82.0225 278.0901 15.06394116314434
STARLINK-1320,45572,53.0561,0.0004834,15.52188119,407.0572081626524,413.6203065248519,1 45572U 20025AT  25361.18725263  .00044763  00000+0  72956-3 0  9998,2 45572  53.0561 339.2152 0004834  99.2567 260.8989 15.52188119315481
STARLINK-1321,45573,53.056,0.0001617,15.19961501,504.84369780419456,507.0700137571539,1 45573U 20025AU  25361.91671295  .01909318  00000+0  79331-1 0  9994,2 45573  53.0560  38.3984 0001617  75.4756 303.2046 15.19961501  5785
STARLINK-1328,45576,53.0431,0.0001077,15.96698975,282.86709973296365,284.30203455852734,1 45576U 20025AX  25361.91671295  .00488685  10987-3  11271-2 0  9994,2 45576  53.0431 344.4543 0001077  99.8349 185.4022 15.96698975  6002
STARLINK-1331,45578,53.0552,0.0001185,15.06402109,546.3844411264126,548.0257472027288,1 45578U 20025AZ  25361.53333271  .00002001  00000+0  15321-3 0  9999,2 45578  53.0552  40.5396 0001185  83.5795 276.5329 15.06402109314640
STARLINK-1333,45580,53.0555,0.0001346,15.06393323,546.2998673868324,548.1641767275696,1 45580U 20025BB  25361.40709529 -.00000068  00000+0  14301-4 0  9991,2 45580  53.0555  51.1054 0001346  98.6211 261.4931 15.06393323314474
STARLINK-1335,45581,53.0555,0.0001262,15.0640041,546.3363225181838,548.0842801770432,1 45581U 20025BC  25361.80977948  .00000404  00000+0  46017-4 0  9990,2 45581  53.0555  39.3015 0001262  94.2592 265.8541 15.06400410314674
STARLINK-1337,45582,53.0555,0.0001349,15.06406449,546.2575658984761,548.1260196067606,1 45582U 20025BD  25361.50015627  .00000632  00000+0  61291-4 0  9999,2 45582  53.0555  40.6919 0001349  86.0812 274.0331 15.06406449314625
STARLINK-1347,45586,53.053,8.85e-05,15.40335275,444.51516364764393,445.72287996350406,1 45586U 20025BH  25361.45692648  .00100322  00000+0  24272-2 0  9994,2 45586  53.0530  14.5634 0000885  27.6874 332.4177 15.40335275314981
STARLINK-1360,45588,53.0357,0.0004894,16.00406536,270.0368540817417,276.5472728490604,1 45588U 20025BK  25361.66668980  .00842904  34666-3  15769-2 0  9990,2 45588  53.0357 271.7683 0004894 139.9600 301.1490 16.00406536  5826
STARLINK-1364,45589,53.0538,0.0001076,15.06405408,546.449817525362,547.9401489681559,1 45589U 20025BL  25361.83557429 -.00002588  00000+0 -15490-3 0  9996,2 45589  53.0538  39.1846 0001076  92.7705 267.3407 15.06405408314675
STARLINK-1365,45590,53.0559,9.45e-05,15.06402116,546.5506278847579,547.8595175365008,1 45590U 20025BM  25361.51950057  .00001084  00000+0  91664-4 0  9993,2 45590  53.0559  70.6012 0000945  79.0339 281.0756 15.06402116314224
